LANDSAT 9               
1 49260U 21088A   23282.77218002  .00001000  00000+0  23208-3 0  9992
2 49260  98.2190 351.2352 0001227  75.1010 285.0325 14.57091452108078
